OSCAR 7 (AO-7)          
1 07530U 74089B   19013.85030265 -.00000022  00000-0  14544-3 0  9992
2 07530 101.7213 343.2565 0011925 289.1407 123.7872 12.53636217 20995
UOSAT 2 (UO-11)         
1 14781U 84021B   19013.10454465  .00000026  00000-0  93094-5 0  9997
2 14781  97.6273  45.0899 0009902 110.9705 249.2569 14.83056955875558
LUSAT (LO-19)           
1 20442U 90005G   19013.81429579 -.00000014  00000-0  11287-4 0  9994
2 20442  98.6330 316.2183 0010705 247.3934 112.6117 14.32914819514058
ITAMSAT                 
1 22826U 93061D   19012.95200163  .00000001  00000-0  18242-4 0  9990
2 22826  98.8822 358.1505 0010002  85.1418 275.0906 14.30381594319499
RADIO ROSTO (RS-15)     
1 23439U 94085A   19012.91035817 -.00000050  00000-0 -21004-3 0  9991
2 23439  64.8181   9.6640 0149876 143.3461 305.7957 11.27567646990215
JAS-2 (FO-29)           
1 24278U 96046B   19013.74882635 -.00000039  00000-0 -91641-6 0  9996
2 24278  98.5144 188.4841 0349365 284.5876  71.6768 13.53088600106714
TECHSAT 1B (GO-32)      
1 25397U 98043D   19013.80624355 -.00000013  00000-0  13599-4 0  9993
2 25397  98.6736 315.9750 0002223 109.9368 250.2050 14.23658479 65691
ISS (ZARYA)             
1 25544U 98067A   19014.08455007  .00000357  00000-0  12757-4 0  9995
2 25544  51.6425  47.7299 0002422 285.5948 117.5173 15.53758972151312
PCSAT (NO-44)           
1 26931U 01043C   19013.59098631 -.00000041  00000-0  16236-4 0  9992
2 26931  67.0514  46.4914 0005668 263.6804  96.3652 14.30529209902645
SAUDISAT 1C (SO-50)     
1 27607U 02058C   19012.91696872 -.00000032  00000-0  16381-4 0  9997
2 27607  64.5537 168.9007 0080847 286.2857  72.9364 14.75511644863905
CUTE-1 (CO-55)          
1 27844U 03031E   19013.60573624  .00000035  00000-0  35326-4 0  9990
2 27844  98.6860  24.1410 0010731 120.0562 240.1681 14.22154594806108
CUBESAT XI-IV (CO-57)   
1 27848U 03031J   19013.55362548  .00000021  00000-0  29580-4 0  9999
2 27848  98.6941  24.5519 0010512 130.2578 229.9521 14.21753145805959
MOZHAYETS 4 (RS-22)     
1 27939U 03042A   19013.28282472  .00000092  00000-0  24984-4 0  9990
2 27939  98.0164 152.3839 0012608 197.3307 162.7485 14.66746348817613
CUBESAT XI 5            
1 28895U 05043F   19012.88745208  .00000116  00000-0  30975-4 0  9995
2 28895  97.9343 161.2266 0017945 124.8417 235.4476 14.63620987704554
CUTE-1.7+APD II (CO-65) 
1 32785U 08021C   19013.83798315  .00000156  00000-0  22455-4 0  9998
2 32785  97.5465  20.9440 0014440  63.0481 297.2210 14.88234653580502
DELFI-C3 (DO-64)        
1 32789U 08021G   19012.69278390  .00001341  00000-0  94624-4 0  9995
2 32789  97.4867  66.9444 0011012 305.5925  54.4276 15.06583010583327
SEEDS II (CO-66)        
1 32791U 08021J   19013.51279690  .00000322  00000-0  38174-4 0  9990
2 32791  97.5298  26.4051 0014374  43.1231 317.1111 14.90712573580844
YUBILEINY (RS-30)       
1 32953U 08025A   19013.26413607  .00000021  00000-0  75656-4 0  9996
2 32953  82.5017 242.0240 0019573 109.5226 250.7972 12.43087254482878
KKS-1 (KISEKI)          
1 33499U 09002H   19013.82908217  .00000074  00000-0  18963-4 0  9992
2 33499  98.3537 207.4857 0008921 350.4521   9.6516 14.75397774536249
SWISSCUBE               
1 35932U 09051B   19012.93969307  .00000103  00000-0  34220-4 0  9995
2 35932  98.5678 174.4906 0006569 288.4775  71.5707 14.56234701493922
BEESAT                  
1 35933U 09051C   19012.95261362  .00000088  00000-0  30867-4 0  9999
2 35933  98.5713 176.1792 0004875 305.5477  54.5265 14.56330003494072
ITUPSAT 1               
1 35935U 09051E   19013.67650284  .00000068  00000-0  26802-4 0  9998
2 35935  98.5824 177.1697 0007132 296.8597  63.1870 14.55497394493945
XIWANG-1 (HOPE-1)       
1 36122U 09072B   19012.70995464 -.00000027  00000-0  38744-4 0  9999
2 36122 100.0716  22.4867 0007454 354.1782   5.9245 13.16348145436228
JUGNU                   
1 37839U 11058B   19012.78334914  .00000309  00000-0  23140-4 0  9993
2 37839  19.9594 206.2818 0019044  37.5170  32.6211 14.12639365375041
SRMSAT                  
1 37841U 11058D   19012.05433059  .00000304  00000-0  22025-4 0  9992
2 37841  19.9716 264.2204 0011775 264.6989 231.2446 14.10622605374400
M-CUBED & EXP-1 PRIME   
1 37855U 11061F   19013.79118777  .00001137  00000-0  65121-4 0  9999
2 37855 101.7256 189.2368 0174794 178.6974 181.4728 15.05046550393325
STRAND-1                
1 39090U 13009E   19013.81628846  .00000022  00000-0  22817-4 0  9999
2 39090  98.5004 222.2431 0009830  37.5743 322.6127 14.35066847308035
SOMP                    
1 39134U 13015E   19013.75126392  .00001051  00000-0  58291-4 0  9995
2 39134  64.8626 165.4829 0015108 327.0628  32.9556 15.19729195316898
BEESAT-3                
1 39135U 13015F   19013.79673978  .00000854  00000-0  52659-4 0  9999
2 39135  64.8681 181.4904 0010506 263.6623  96.3306 15.17130620316590
BEESAT-2                
1 39136U 13015G   19013.51230017  .00000752  00000-0  48267-4 0  9990
2 39136  64.8678 185.7692 0007716 282.2844  77.7418 15.16572897316489
ZACUBE-1 (TSHEPISOSAT)  
1 39417U 13066B   19012.83067758  .00000148  00000-0  24987-4 0  9994
2 39417  97.5714  35.0797 0058869 186.8398 173.2019 14.81039142277821
GOMX 1                  
1 39430U 13066Q   19013.21221574  .00000222  00000-0  49054-4 0  9995
2 39430  97.7250 340.2737 0152225  28.2083 332.7260 14.59181539273783
CUBEBUG-2 (LO-74)       
1 39440U 13066AA  19013.53831520  .00000121  00000-0  24049-4 0  9994
2 39440  97.5991  21.2384 0079217 231.6514 127.7560 14.75779420276942
FUNCUBE-1 (AO-73)       
1 39444U 13066AE  19013.05204891  .00000189  00000-0  29596-4 0  9996
2 39444  97.5710  37.0694 0058185 180.6499 179.4649 14.81842775276730
UWE-3                   
1 39446U 13066AG  19013.53923520  .00000117  00000-0  22266-4 0  9996
2 39446  97.5838  28.0288 0069409 208.5592 151.1811 14.78313291276197
SPROUT                  
1 39770U 14029E   19013.20529238  .00000756  00000-0  90239-4 0  9992
2 39770  97.8818 117.6262 0007949 234.9400 125.1054 14.87137729251572
UNISAT-6                
1 40012U 14033C   19013.87625486  .00000087  00000-0  20557-4 0  9996
2 40012  97.7787 246.9756 0057157 239.8412 119.7126 14.73914834245739
DUCHIFAT-1              
1 40021U 14033M   19013.19809693  .00000433  00000-0  50192-4 0  9998
2 40021  97.9209 297.3229 0012243 200.9116 159.1602 14.90496123248232
QB50P1                  
1 40025U 14033R   19013.71695891  .00000221  00000-0  29631-4 0  9992
2 40025  97.9064 293.6582 0011677 207.3615 152.6988 14.88848676248114
NUDT-PHONESAT           
1 40900U 15049B   19013.28819889  .00001623  00000-0  73688-4 0  9997
2 40900  97.4393  24.2157 0013942  20.9607 102.4217 15.22145860183861
ZDPS 2A                 
1 40901U 15049C   19013.26948096  .00000801  00000-0  43302-4 0  9996
2 40901  97.4593  21.3923 0014718  33.6233  22.1891 15.17451337183512
ZDPS 2B                 
1 40902U 15049D   19013.21990995  .00000633  00000-0  35147-4 0  9998
2 40902  97.4514  19.0486 0014698  30.8451  97.8941 15.17230443183486
XW-2A                   
1 40903U 15049E   19013.33312589  .00001214  00000-0  31195-4 0  9994
2 40903  97.3591  55.0694 0013774 358.8941  57.2259 15.41254834186160
KAITUO 1A               
1 40904U 15049F   19013.30117216  .00000132  00000-0  10507-4 0  9994
2 40904  97.4636  18.0395 0015837  34.9382  97.2638 15.15215620183312
2015-049G               
1 40905U 15049G   19013.25735161  .00000525  00000-0  32284-4 0  9996
2 40905  97.4650  15.7492 0016764  29.5145  25.8831 15.14156748183202
XW-2C                   
1 40906U 15049H   19013.26353503  .00000606  00000-0  35472-4 0  9996
2 40906  97.4640  17.9918 0015842  28.0302  96.3552 15.15467790183301
XW-2D                   
1 40907U 15049J   19013.24707498  .00000591  00000-0  34490-4 0  9993
2 40907  97.4615  17.6559 0015093  25.9901  29.7917 15.15639230183317
LILACSAT 2              
1 40908U 15049K   19013.25237446  .00000436  00000-0  27808-4 0  9999
2 40908  97.4738  16.7386 0016953  28.9072  27.6122 15.13679081183142
XW-2F                   
1 40910U 15049M   19013.08436888  .00000660  00000-0  36771-4 0  9992
2 40910  97.4600  19.1934 0015634  20.3751  20.3228 15.16965006183273
XW-2B                   
1 40911U 15049N   19013.27297633  .00000581  00000-0  34020-4 0  9994
2 40911  97.4647  18.2894 0015133  26.6721  29.8061 15.15574949183214
KAITUO 1B               
1 40912U 15049P   19013.22327725  .00000839  00000-0  42980-4 0  9996
2 40912  97.4504  22.6443 0015326   5.4011  56.2609 15.19236769183555
TIANWANG 1C (TW-1C)     
1 40926U 15051B   19013.23968566  .00006314  00000-0  10455-3 0  9994
2 40926  97.1587  59.7838 0007607 223.8865 198.6721 15.52507010185862
TIANWANG 1A (TW-1A)     
1 40928U 15051D   19013.31017567  .00002179  00000-0  56927-4 0  9991
2 40928  97.1638  48.0120 0009665 284.0183 135.7024 15.39811455185105
LAPAN-A2                
1 40931U 15052B   19012.85075593  .00000702  00000-0  87459-5 0  9992
2 40931   5.9995  95.0186 0013162  92.5574 267.6002 14.76595789178044
E-ST@R-II               
1 41459U 16025D   19013.18491345  .00000465  00000-0  28263-4 0  9996
2 41459  98.1130  91.8215 0169858 163.5592 197.1248 15.04990563149009
AAUSAT 4                
1 41460U 16025E   19013.14584855  .00002431  00000-0  12614-3 0  9990
2 41460  98.1109  92.6649 0160795 158.1008 202.7202 15.06687836149090
NUSAT-1 (FRESCO)        
1 41557U 16033B   19013.88614710  .00000860  00000-0  35367-4 0  9996
2 41557  97.4268 102.2970 0015392 124.9700 235.2987 15.26798833146317
BEESAT-4                
1 41619U 16040W   19013.13395578  .00001030  00000-0  47182-4 0  9997
2 41619  97.3899  78.1326 0010752 206.3711 153.6980 15.22691834130030
ALSAT 1N                
1 41789U 16059G   19013.93434169  .00000067  00000-0  21810-4 0  9992
2 41789  98.0931  78.4357 0029103 142.0192 303.3957 14.64209233122851
CAS-2T & KS-1Q          
1 41847U 16066G   19012.90933756  .00000023  00000-0  14539-4 0  9999
2 41847  98.7281  50.9540 0365676 341.4134  17.3980 14.37951210114464
NAYIF-1 (EO-88)         
1 42017U 17008BX  19012.83899125  .00001049  00000-0  44827-4 0  9991
2 42017  97.4240  81.4279 0006508  17.3272 342.8186 15.25055734106011
LILACSAT-1              
1 42725U 98067ME  19013.94039310  .00068552  00000-0  26272-3 0  9991
2 42725  51.6352 352.2875 0002822  32.2214  61.4380 15.86773076 93761
MAX VALIER SAT          
1 42778U 17036P   19013.76371557  .00000579  00000-0  28590-4 0  9999
2 42778  97.3773  74.6990 0013772  56.7550 303.5004 15.21714325 86526
RADFXSAT (FOX-1B)       
1 43017U 17073E   19012.78370803  .00000630  00000-0  55346-4 0  9998
2 43017  97.7200 300.3188 0257861 309.5330  48.3343 14.78356924 62076
FOX-1D (AO-92)          
1 43137U 18004AC  19013.42023072  .00000640  00000-0  30147-4 0  9994
2 43137  97.5086  81.4341 0011046  85.9002 274.3497 15.23136337 55709
ES'HAIL 2               
1 43700U 18090A   19012.61763219  .00000153  00000-0  00000-0 0  9999
2 43700   0.0428 116.2443 0000779 144.3548  99.3830  1.00271618   483
FOX-1CLIFF (AO-95)      
1 43770U 18099N   19013.18742551 -.00000043  00000-0  13243-5 0  9991
2 43770  97.7641  86.9231 0015772 132.4505 227.8051 14.94656516  6040
ITASAT 1                
1 43786U 18099AE  19013.77931784 -.00000233  00000-0 -15943-4 0  9991
2 43786  97.7656  87.5423 0016455 125.5139 234.7619 14.95044877  6137
JY1SAT (JO-97)          
1 43803U 18099AX  19013.84339359 -.00000205  00000-0 -13323-4 0  9998
2 43803  97.7613  87.5852 0016420 126.1883 234.0859 14.95153018  6138
